NOAA 18                 
1 28654U 05018A   26079.22886810  .00000043  00000+0  45716-4 0  9991
2 28654  98.8141 160.1878 0014961  47.3226 312.9204 14.13712891 73743
NOAA 19                 
1 33591U 09005A   26079.14113624  .00000036  00000+0  43121-4 0  9994
2 33591  98.9587 149.9288 0012693 282.8593  77.1161 14.13458743881907
SUOMI NPP               
1 37849U 11061A   26077.76528043  .00000067  00000+0  52991-4 0  9999
2 37849  98.7881  19.2966 0000907 182.5873 177.5298 14.19546100745610
NOAA 20 (JPSS-1)        
1 43013U 17073A   26079.26019189  .00000042  00000+0  40887-4 0  9995
2 43013  98.7705  19.5430 0001628 123.9518 236.1813 14.19538640431853
