[{"OBJECT_NAME":"NOAA 18","OBJECT_ID":"2005-018A","EPOCH":"2026-03-20T05:29:34.203840","MEAN_MOTION":14.13712891,"ECCENTRICITY":0.00149614,"INCLINATION":98.8141,"RA_OF_ASC_NODE":160.1878,"ARG_OF_PERICENTER":47.3226,"MEAN_ANOMALY":312.9204,"EPHEMERIS_TYPE":0,"CLASSIFICATION_TYPE":"U","NORAD_CAT_ID":28654,"ELEMENT_SET_NO":999,"REV_AT_EPOCH":7374,"BSTAR":4.5716457e-5,"MEAN_MOTION_DOT":4.3e-7,"MEAN_MOTION_DDOT":0},{"OBJECT_NAME":"NOAA 19","OBJECT_ID":"2009-005A","EPOCH":"2026-03-20T03:23:14.171136","MEAN_MOTION":14.13458743,"ECCENTRICITY":0.00126931,"INCLINATION":98.9587,"RA_OF_ASC_NODE":149.9288,"ARG_OF_PERICENTER":282.8593,"MEAN_ANOMALY":77.1161,"EPHEMERIS_TYPE":0,"CLASSIFICATION_TYPE":"U","NORAD_CAT_ID":33591,"ELEMENT_SET_NO":999,"REV_AT_EPOCH":88190,"BSTAR":4.3120836e-5,"MEAN_MOTION_DOT":3.6e-7,"MEAN_MOTION_DDOT":0},{"OBJECT_NAME":"SUOMI NPP","OBJECT_ID":"2011-061A","EPOCH":"2026-03-18T18:22:00.229152","MEAN_MOTION":14.195461,"ECCENTRICITY":9.07e-5,"INCLINATION":98.7881,"RA_OF_ASC_NODE":19.2966,"ARG_OF_PERICENTER":182.5873,"MEAN_ANOMALY":177.5298,"EPHEMERIS_TYPE":0,"CLASSIFICATION_TYPE":"U","NORAD_CAT_ID":37849,"ELEMENT_SET_NO":999,"REV_AT_EPOCH":74561,"BSTAR":5.2991e-5,"MEAN_MOTION_DOT":6.7e-7,"MEAN_MOTION_DDOT":0},{"OBJECT_NAME":"NOAA 20 (JPSS-1)","OBJECT_ID":"2017-073A","EPOCH":"2026-03-20T06:14:40.579296","MEAN_MOTION":14.1953864,"ECCENTRICITY":0.00016285,"INCLINATION":98.7705,"RA_OF_ASC_NODE":19.543,"ARG_OF_PERICENTER":123.9518,"MEAN_ANOMALY":236.1813,"EPHEMERIS_TYPE":0,"CLASSIFICATION_TYPE":"U","NORAD_CAT_ID":43013,"ELEMENT_SET_NO":999,"REV_AT_EPOCH":43185,"BSTAR":4.0887255e-5,"MEAN_MOTION_DOT":4.2e-7,"MEAN_MOTION_DDOT":0}]
